{"fetched_at":"2026-03-30T09:12:31Z","count":15922,"tles":[{"name":"STARLINK-35944","line1":"1 66928U 25286D   26087.82985758  .00029331  00000+0  99837-3 0  9995","line2":"2 66928  53.1600 269.8005 0001029  75.5343 284.5772 15.30205196 18340","category":"Starlink"}]}