{
  "norad_id": 66928,
  "name": "STARLINK-35944",
  "history": [
    {
      "epoch": "2026-03-28T19:54:59.694912",
      "apogee_km": 475.905243208892,
      "perigee_km": 474.493867078726,
      "latitude_deg": -0.3264727863218338,
      "longitude_deg": -127.53367231995799,
      "semi_major_axis_km": 6853.336555143809,
      "eccentricity": 0.00010297,
      "inclination_deg": 53.16,
      "raan_deg": 269.8005,
      "arg_perigee_deg": 75.5343,
      "mean_anomaly_deg": 284.5772,
      "mean_motion_rev_day": 15.30205196
    }
  ]
}